GLOBALSTAR M001         
1 25162U 98008A   25191.53345909 -.00000087  00000+0  77354-4 0  9992
2 25162  52.0032 265.2747 0001058 291.5709 173.4511 12.38214316246601
GLOBALSTAR M004         
1 25163U 98008B   25191.71848464 -.00000099  00000+0  27201-4 0  9996
2 25163  52.0025 342.3641 0002800 358.7339  14.5236 12.63397782264667
GLOBALSTAR M002         
1 25164U 98008C   25191.65895434 -.00000081  00000+0 -98304-4 0  9993
2 25164  51.9979 181.3523 0001328 203.7243 156.3516 11.61510999186798
GLOBALSTAR M003         
1 25165U 98008D   25191.48244713 -.00000162  00000+0 -77731-3 0  9993
2 25165  51.9982 104.0068 0008341 343.8567 187.5091 12.12072163236047
GLOBALSTAR M014         
1 25306U 98023A   25191.70239848 -.00000083  00000+0 -10769-3 0  9995
2 25306  51.9840 103.9732 0001600  37.5708 356.9429 11.65481392193918
GLOBALSTAR M006         
1 25307U 98023B   25191.63031338 -.00000095  00000+0 -40482-3 0  9990
2 25307  51.9912 157.5039 0002782 146.9140  23.8400 11.58176724219540
GLOBALSTAR M015         
1 25308U 98023C   25191.44244610 -.00000080  00000+0 -14930-3 0  9992
2 25308  51.9809 257.5119 0012701 118.3234 254.4525 11.48859947196756
GLOBALSTAR M008         
1 25309U 98023D   25191.54862322 -.00000120  00000+0 -19208-3 0  9998
2 25309  51.9959 130.3230 0002199 229.0109 308.3580 12.36070500240732
